FLOCK 4G-21             
1 62651U 25009AU  26068.19487675  .00013648  00000+0  49619-3 0  9998
2 62651  97.4032 151.1274 0000465 329.5782  30.5431 15.28381075 63677
STARLINK-35793          
1 67179U 25303S   26068.08622385  .00032967  00000+0  12006-2 0  9996
2 67179  43.0009 314.0538 0001815 262.6995  97.3650 15.27621373 12646
